TIROS N                 
1 11060U 78096A   25112.12122876  .00000345  00000+0  18463-3 0  9994
2 11060  98.4924 146.4169 0010882  28.9254 331.2524 14.19167522619268
NOAA 15                 
1 25338U 98030A   25112.14906318  .00000358  00000+0  16499-3 0  9991
2 25338  98.5397 138.4368 0011177 136.7800 223.4260 14.26947565401495
NOAA 18                 
1 28654U 05018A   25112.20784916  .00000348  00000+0  20770-3 0  9990
2 28654  98.8425 192.2268 0013081 265.7470  94.2208 14.13581068 26917
NOAA 19                 
1 33591U 09005A   25112.20643661  .00000321  00000+0  19515-3 0  9993
2 33591  99.0005 176.6325 0014613 137.9552 222.2744 14.13345832835275
SUOMI NPP               
1 37849U 11061A   25112.18869552  .00000187  00000+0  10941-3 0  9998
2 37849  98.7548  51.9990 0002534  89.5159 270.6307 14.19522403698704
NOAA 20 (JPSS-1)        
1 43013U 17073A   25112.13387980  .00000192  00000+0  11179-3 0  9992
2 43013  98.7387  51.3412 0002223  77.3742 282.7683 14.19528560384732
